BEIDOU-3 G4             
1 56564U 23066A   24170.18174226 -.00000087  00000+0  00000+0 0  9992
2 56564   2.1207 288.2133 0005801 199.7001   4.4290  1.00270884  4090
BEIDOU-3 M25            
1 58654U 23207A   24169.04220144 -.00000047  00000+0  00000+0 0  9991
2 58654  55.1100  87.0719 0003217 309.3380  50.6281  1.86232415  3246
BEIDOU-3 M26            
1 58655U 23207B   24169.37811337 -.00000047  00000+0  00000+0 0  9998
2 58655  55.1123  87.0459 0003511 284.4962  75.4593  1.86232040  3233
GSAT0225 (PRN E29)      
1 59598U 24079A   24162.57006490  .00000018  00000+0  00000+0 0  9991
2 59598  54.6844 121.6940 0021386 255.0217 286.2987  1.72327500   744
GSAT0227 (PRN E06)      
1 59600U 24079C   24162.27733445  .00000017  00000+0  00000+0 0  9998
2 59600  54.6844 121.7029 0021410 254.7953 104.9173  1.72327436   794
IRNSS-1J (NVS-01)       
1 56759U 23076A   24169.71021451 -.00000310  00000+0  00000+0 0  9996
2 56759   3.9968 266.1771 0004156   5.4507  20.0933  1.00272718  3802
COSMOS 2557 (706K)      
1 52984U 22075A   24169.40833225 -.00000052  00000+0  00000+0 0  9999
2 52984  64.6720 340.0770 0010554 281.1799  78.7150  2.13102255 15160
COSMOS 2559 (707K)      
1 54031U 22130A   24169.35121975 -.00000052  00000+0  00000+0 0  9992
2 54031  64.6437 340.1965 0005597 212.3747 147.6048  2.13101535 13134
COSMOS 2564 (761)       
1 54377U 22161A   24169.54233718  .00000083  00000+0  00000+0 0  9992
2 54377  64.7407 216.9675 0011221 223.9227 136.0731  2.13102219 12089
COSMOS 2569 (703K)      
1 57517U 23114A   24169.55949386 -.00000019  00000+0  00000+0 0  9996
2 57517  64.9175  97.3022 0011529 297.6167  62.2589  2.13103799  6719
GPS BIII-6  (PRN 28)    
1 55268U 23009A   24169.61418289  .00000113  00000+0  00000+0 0  9994
2 55268  55.0871 177.1505 0000764  96.8633 323.4088  2.00564401 10610
