[{"OBJECT_NAME":"COSMOS 2557 (706K)","OBJECT_ID":"2022-075A","EPOCH":"2024-06-17T09:47:59.906400","MEAN_MOTION":2.13102255,"ECCENTRICITY":0.0010554,"INCLINATION":64.672,"RA_OF_ASC_NODE":340.077,"ARG_OF_PERICENTER":281.1799,"MEAN_ANOMALY":78.715,"EPHEMERIS_TYPE":0,"CLASSIFICATION_TYPE":"U","NORAD_CAT_ID":52984,"ELEMENT_SET_NO":999,"REV_AT_EPOCH":1516,"BSTAR":0,"MEAN_MOTION_DOT":-5.2e-7,"MEAN_MOTION_DDOT":0},{"OBJECT_NAME":"COSMOS 2559 (707K)","OBJECT_ID":"2022-130A","EPOCH":"2024-06-17T08:25:45.386400","MEAN_MOTION":2.13101535,"ECCENTRICITY":0.0005597,"INCLINATION":64.6437,"RA_OF_ASC_NODE":340.1965,"ARG_OF_PERICENTER":212.3747,"MEAN_ANOMALY":147.6048,"EPHEMERIS_TYPE":0,"CLASSIFICATION_TYPE":"U","NORAD_CAT_ID":54031,"ELEMENT_SET_NO":999,"REV_AT_EPOCH":1313,"BSTAR":0,"MEAN_MOTION_DOT":-5.2e-7,"MEAN_MOTION_DDOT":0},{"OBJECT_NAME":"COSMOS 2564 (761)","OBJECT_ID":"2022-161A","EPOCH":"2024-06-17T13:00:57.932352","MEAN_MOTION":2.13102219,"ECCENTRICITY":0.0011221,"INCLINATION":64.7407,"RA_OF_ASC_NODE":216.9675,"ARG_OF_PERICENTER":223.9227,"MEAN_ANOMALY":136.0731,"EPHEMERIS_TYPE":0,"CLASSIFICATION_TYPE":"U","NORAD_CAT_ID":54377,"ELEMENT_SET_NO":999,"REV_AT_EPOCH":1208,"BSTAR":0,"MEAN_MOTION_DOT":8.3e-7,"MEAN_MOTION_DDOT":0},{"OBJECT_NAME":"GPS BIII-6  (PRN 28)","OBJECT_ID":"2023-009A","EPOCH":"2024-06-17T14:44:25.401696","MEAN_MOTION":2.00564401,"ECCENTRICITY":7.64e-5,"INCLINATION":55.0871,"RA_OF_ASC_NODE":177.1505,"ARG_OF_PERICENTER":96.8633,"MEAN_ANOMALY":323.4088,"EPHEMERIS_TYPE":0,"CLASSIFICATION_TYPE":"U","NORAD_CAT_ID":55268,"ELEMENT_SET_NO":999,"REV_AT_EPOCH":1061,"BSTAR":0,"MEAN_MOTION_DOT":1.13e-6,"MEAN_MOTION_DDOT":0},{"OBJECT_NAME":"BEIDOU-3 G4","OBJECT_ID":"2023-066A","EPOCH":"2024-06-18T04:21:42.531264","MEAN_MOTION":1.00270884,"ECCENTRICITY":0.0005801,"INCLINATION":2.1207,"RA_OF_ASC_NODE":288.2133,"ARG_OF_PERICENTER":199.7001,"MEAN_ANOMALY":4.429,"EPHEMERIS_TYPE":0,"CLASSIFICATION_TYPE":"U","NORAD_CAT_ID":56564,"ELEMENT_SET_NO":999,"REV_AT_EPOCH":409,"BSTAR":0,"MEAN_MOTION_DOT":-8.7e-7,"MEAN_MOTION_DDOT":0},{"OBJECT_NAME":"IRNSS-1J (NVS-01)","OBJECT_ID":"2023-076A","EPOCH":"2024-06-17T17:02:42.533664","MEAN_MOTION":1.00272718,"ECCENTRICITY":0.0004156,"INCLINATION":3.9968,"RA_OF_ASC_NODE":266.1771,"ARG_OF_PERICENTER":5.4507,"MEAN_ANOMALY":20.0933,"EPHEMERIS_TYPE":0,"CLASSIFICATION_TYPE":"U","NORAD_CAT_ID":56759,"ELEMENT_SET_NO":999,"REV_AT_EPOCH":380,"BSTAR":0,"MEAN_MOTION_DOT":-3.1e-6,"MEAN_MOTION_DDOT":0},{"OBJECT_NAME":"COSMOS 2569 (703K)","OBJECT_ID":"2023-114A","EPOCH":"2024-06-17T13:25:40.269504","MEAN_MOTION":2.13103799,"ECCENTRICITY":0.0011529,"INCLINATION":64.9175,"RA_OF_ASC_NODE":97.3022,"ARG_OF_PERICENTER":297.6167,"MEAN_ANOMALY":62.2589,"EPHEMERIS_TYPE":0,"CLASSIFICATION_TYPE":"U","NORAD_CAT_ID":57517,"ELEMENT_SET_NO":999,"REV_AT_EPOCH":671,"BSTAR":0,"MEAN_MOTION_DOT":-1.9e-7,"MEAN_MOTION_DDOT":0},{"OBJECT_NAME":"BEIDOU-3 M25","OBJECT_ID":"2023-207A","EPOCH":"2024-06-17T01:00:46.204416","MEAN_MOTION":1.86232415,"ECCENTRICITY":0.0003217,"INCLINATION":55.11,"RA_OF_ASC_NODE":87.0719,"ARG_OF_PERICENTER":309.338,"MEAN_ANOMALY":50.6281,"EPHEMERIS_TYPE":0,"CLASSIFICATION_TYPE":"U","NORAD_CAT_ID":58654,"ELEMENT_SET_NO":999,"REV_AT_EPOCH":324,"BSTAR":0,"MEAN_MOTION_DOT":-4.7e-7,"MEAN_MOTION_DDOT":0},{"OBJECT_NAME":"BEIDOU-3 M26","OBJECT_ID":"2023-207B","EPOCH":"2024-06-17T09:04:28.995168","MEAN_MOTION":1.8623204,"ECCENTRICITY":0.0003511,"INCLINATION":55.1123,"RA_OF_ASC_NODE":87.0459,"ARG_OF_PERICENTER":284.4962,"MEAN_ANOMALY":75.4593,"EPHEMERIS_TYPE":0,"CLASSIFICATION_TYPE":"U","NORAD_CAT_ID":58655,"ELEMENT_SET_NO":999,"REV_AT_EPOCH":323,"BSTAR":0,"MEAN_MOTION_DOT":-4.7e-7,"MEAN_MOTION_DDOT":0},{"OBJECT_NAME":"GSAT0225 (PRN E29)","OBJECT_ID":"2024-079A","EPOCH":"2024-06-10T13:40:53.607360","MEAN_MOTION":1.723275,"ECCENTRICITY":0.0021386,"INCLINATION":54.6844,"RA_OF_ASC_NODE":121.694,"ARG_OF_PERICENTER":255.0217,"MEAN_ANOMALY":286.2987,"EPHEMERIS_TYPE":0,"CLASSIFICATION_TYPE":"U","NORAD_CAT_ID":59598,"ELEMENT_SET_NO":999,"REV_AT_EPOCH":74,"BSTAR":0,"MEAN_MOTION_DOT":1.8e-7,"MEAN_MOTION_DDOT":0},{"OBJECT_NAME":"GSAT0227 (PRN E06)","OBJECT_ID":"2024-079C","EPOCH":"2024-06-10T06:39:21.696480","MEAN_MOTION":1.72327436,"ECCENTRICITY":0.002141,"INCLINATION":54.6844,"RA_OF_ASC_NODE":121.7029,"ARG_OF_PERICENTER":254.7953,"MEAN_ANOMALY":104.9173,"EPHEMERIS_TYPE":0,"CLASSIFICATION_TYPE":"U","NORAD_CAT_ID":59600,"ELEMENT_SET_NO":999,"REV_AT_EPOCH":79,"BSTAR":0,"MEAN_MOTION_DOT":1.7e-7,"MEAN_MOTION_DDOT":0}]
